QZS-1R                  
1 49336U 21096A   23264.65356683 -.00000216  00000+0  00000+0 0  9990
2 49336  35.3870  94.6501 0744352 269.6079   5.5728  1.00287017  6988
